[
  {
    "links": {
      "self": "http://www.neowsapp.com/rest/v1/neo/2002101?api_key=8MhXrXjdH1Jr2bya5PCI9GSJw3FBOpXeO0UM2taO"
    },
    "id": "2002101",
    "neo_reference_id": "2002101",
    "name": "2101 Adonis (1936 CA)",
    "name_limited": "Adonis",
    "designation": "2101",
    "nasa_jpl_url": "http://ssd.jpl.nasa.gov/sbdb.cgi?sstr=2002101",
    "absolute_magnitude_h": 18.64,
    "estimated_diameter": {
      "kilometers": {
        "estimated_diameter_min": 0.4972273129,
        "estimated_diameter_max": 1.1118340719
      },
      "meters": {
        "estimated_diameter_min": 497.2273129092,
        "estimated_diameter_max": 1111.8340719346
      },
      "miles": {
        "estimated_diameter_min": 0.3089626326,
        "estimated_diameter_max": 0.6908614491
      },
      "feet": {
        "estimated_diameter_min": 1631.3232572851,
        "estimated_diameter_max": 3647.7496965659
      }
    },
    "is_potentially_hazardous_asteroid": true,
    "close_approach_data": {
      "close_approach_date": "1936-02-07",
      "close_approach_date_full": "1936-Feb-07 16:24",
      "epoch_date_close_approach": -1069745760000,
      "relative_velocity": {
        "kilometers_per_second": "24.6251944674",
        "kilometers_per_hour": "88650.7000827592",
        "miles_per_hour": "55084.0975042011"
      },
      "miss_distance": {
        "astronomical": "0.0148229034",
        "lunar": "5.7661094226",
        "kilometers": "2217474.775855758",
        "miles": "1377874.9328071404"
      },
      "orbiting_body": "Earth"
    },
    "orbital_data": {
      "orbit_id": "45",
      "orbit_determination_date": "2021-09-11 06:30:37",
      "first_observation_date": "1936-02-21",
      "last_observation_date": "2020-06-09",
      "data_arc_in_days": 30790,
      "observations_used": 119,
      "orbit_uncertainty": "0",
      "minimum_orbit_intersection": ".0115678",
      "jupiter_tisserand_invariant": "3.551",
      "epoch_osculation": "2459600.5",
      "eccentricity": ".7641879382987461",
      "semi_major_axis": "1.873943848078716",
      "inclination": "1.32189202413033",
      "ascending_node_longitude": "349.4908620618594",
      "orbital_period": "936.9863989301721",
      "perihelion_distance": ".4418985623278233",
      "perihelion_argument": "43.6048658117942",
      "aphelion_distance": "3.305989133829608",
      "perihelion_time": "2459999.678150800595",
      "mean_anomaly": "206.631568556073",
      "mean_motion": ".3842104863112625",
      "equinox": "J2000",
      "orbit_class": {
        "orbit_class_type": "APO",
        "orbit_class_description": "Near-Earth asteroid orbits which cross the Earth\u2019s orbit similar to that of 1862 Apollo",
        "orbit_class_range": "a (semi-major axis) > 1.0 AU; q (perihelion) < 1.017 AU"
      }
    },
    "is_sentry_object": false
  }
]